{
    "week": 291,
    "satellites": [
        {
            "Name": "BEIDOU-3 M24 (C46)",
            "Line1": "1 44542U 19061A   24309.12895869  .00000045  00000+0  00000+0 0  9999",
            "Line2": "2 44542  54.4268 202.6347 0008865   8.1358 351.9664  1.86229409 34806",
            "SatelliteNumber": "44542",
            "Classification": "U",
            "LaunchYear": "19",
            "LaunchNumber": "061",
            "PieceOfLaunch": "A",
            "EpochYear": "24",
            "EpochDay": 309.12895869,
            "FirstDerivativeMeanMotion": 4.5e-07,
            "SecondDerivativeMeanMotion": "00000+0",
            "BSTAR": "00000+0",
            "SetNumber": "999",
            "Inclination": 54.4268,
            "RAAN": 202.6347,
            "Eccentricity": 0.0008865,
            "ArgumentOfPerigee": 8.1358,
            "MeanAnomaly": 351.9664,
            "MeanMotion": 1.86229409,
            "RevolutionNumber": "3480"
        },
        {
            "Name": "BEIDOU-3 M23 (C45)",
            "Line1": "1 44543U 19061B   24308.45667980  .00000046  00000+0  00000+0 0  9997",
            "Line2": "2 44543  54.4250 202.6264 0005637   0.8027 181.1590  1.86229720 34797",
            "SatelliteNumber": "44543",
            "Classification": "U",
            "LaunchYear": "19",
            "LaunchNumber": "061",
            "PieceOfLaunch": "B",
            "EpochYear": "24",
            "EpochDay": 308.4566798,
            "FirstDerivativeMeanMotion": 4.6e-07,
            "SecondDerivativeMeanMotion": "00000+0",
            "BSTAR": "00000+0",
            "SetNumber": "999",
            "Inclination": 54.425,
            "RAAN": 202.6264,
            "Eccentricity": 0.0005637,
            "ArgumentOfPerigee": 0.8027,
            "MeanAnomaly": 181.159,
            "MeanMotion": 1.8622972,
            "RevolutionNumber": "3479"
        },
        {
            "Name": "BEIDOU-3 IGSO-3 (C40)",
            "Line1": "1 44709U 19073A   24309.34688582 -.00000180  00000+0  00000+0 0  9994",
            "Line2": "2 44709  55.8150 287.2373 0040744 190.9449 168.9094  1.00259559 18548",
            "SatelliteNumber": "44709",
            "Classification": "U",
            "LaunchYear": "19",
            "LaunchNumber": "073",
            "PieceOfLaunch": "A",
            "EpochYear": "24",
            "EpochDay": 309.34688582,
            "FirstDerivativeMeanMotion": -1.8e-06,
            "SecondDerivativeMeanMotion": "00000+0",
            "BSTAR": "00000+0",
            "SetNumber": "999",
            "Inclination": 55.815,
            "RAAN": 287.2373,
            "Eccentricity": 0.0040744,
            "ArgumentOfPerigee": 190.9449,
            "MeanAnomaly": 168.9094,
            "MeanMotion": 1.00259559,
            "RevolutionNumber": "1854"
        },
        {
            "Name": "BEIDOU-3 M22 (C44)",
            "Line1": "1 44793U 19078A   24308.43652205 -.00000053  00000+0  00000+0 0  9993",
            "Line2": "2 44793  54.4552 320.5214 0004988  11.3635 348.6781  1.86232162 33643",
            "SatelliteNumber": "44793",
            "Classification": "U",
            "LaunchYear": "19",
            "LaunchNumber": "078",
            "PieceOfLaunch": "A",
            "EpochYear": "24",
            "EpochDay": 308.43652205,
            "FirstDerivativeMeanMotion": -5.3e-07,
            "SecondDerivativeMeanMotion": "00000+0",
            "BSTAR": "00000+0",
            "SetNumber": "999",
            "Inclination": 54.4552,
            "RAAN": 320.5214,
            "Eccentricity": 0.0004988,
            "ArgumentOfPerigee": 11.3635,
            "MeanAnomaly": 348.6781,
            "MeanMotion": 1.86232162,
            "RevolutionNumber": "3364"
        },
        {
            "Name": "BEIDOU-3 M21 (C43)",
            "Line1": "1 44794U 19078B   24309.10290077 -.00000050  00000+0  00000+0 0  9991",
            "Line2": "2 44794  54.4285 320.4712 0003188 353.1687   6.8561  1.86232678 33667",
            "SatelliteNumber": "44794",
            "Classification": "U",
            "LaunchYear": "19",
            "LaunchNumber": "078",
            "PieceOfLaunch": "B",
            "EpochYear": "24",
            "EpochDay": 309.10290077,
            "FirstDerivativeMeanMotion": -5e-07,
            "SecondDerivativeMeanMotion": "00000+0",
            "BSTAR": "00000+0",
            "SetNumber": "999",
            "Inclination": 54.4285,
            "RAAN": 320.4712,
            "Eccentricity": 0.0003188,
            "ArgumentOfPerigee": 353.1687,
            "MeanAnomaly": 6.8561,
            "MeanMotion": 1.86232678,
            "RevolutionNumber": "3366"
        },
        {
            "Name": "BEIDOU-3 M19 (C41)",
            "Line1": "1 44864U 19090A   24308.98421632  .00000006  00000+0  00000+0 0  9991",
            "Line2": "2 44864  56.0442  82.3857 0016047 278.3417 194.2983  1.86231625 33244",
            "SatelliteNumber": "44864",
            "Classification": "U",
            "LaunchYear": "19",
            "LaunchNumber": "090",
            "PieceOfLaunch": "A",
            "EpochYear": "24",
            "EpochDay": 308.98421632,
            "FirstDerivativeMeanMotion": 6e-08,
            "SecondDerivativeMeanMotion": "00000+0",
            "BSTAR": "00000+0",
            "SetNumber": "999",
            "Inclination": 56.0442,
            "RAAN": 82.3857,
            "Eccentricity": 0.0016047,
            "ArgumentOfPerigee": 278.3417,
            "MeanAnomaly": 194.2983,
            "MeanMotion": 1.86231625,
            "RevolutionNumber": "3324"
        },
        {
            "Name": "BEIDOU-3 M20 (C42)",
            "Line1": "1 44865U 19090B   24308.64881409  .00000004  00000+0  00000+0 0  9995",
            "Line2": "2 44865  56.0458  82.4303 0013399 292.5013  44.9650  1.86231603 33211",
            "SatelliteNumber": "44865",
            "Classification": "U",
            "LaunchYear": "19",
            "LaunchNumber": "090",
            "PieceOfLaunch": "B",
            "EpochYear": "24",
            "EpochDay": 308.64881409,
            "FirstDerivativeMeanMotion": 4e-08,
            "SecondDerivativeMeanMotion": "00000+0",
            "BSTAR": "00000+0",
            "SetNumber": "999",
            "Inclination": 56.0458,
            "RAAN": 82.4303,
            "Eccentricity": 0.0013399,
            "ArgumentOfPerigee": 292.5013,
            "MeanAnomaly": 44.965,
            "MeanMotion": 1.86231603,
            "RevolutionNumber": "3321"
        },
        {
            "Name": "BEIDOU-3 G2 (C60)",
            "Line1": "1 45344U 20017A   24309.37112747 -.00000122  00000+0  00000+0 0  9994",
            "Line2": "2 45344   2.5067  34.5027 0004036 205.7634  17.4940  1.00270856 17342",
            "SatelliteNumber": "45344",
            "Classification": "U",
            "LaunchYear": "20",
            "LaunchNumber": "017",
            "PieceOfLaunch": "A",
            "EpochYear": "24",
            "EpochDay": 309.37112747,
            "FirstDerivativeMeanMotion": -1.22e-06,
            "SecondDerivativeMeanMotion": "00000+0",
            "BSTAR": "00000+0",
            "SetNumber": "999",
            "Inclination": 2.5067,
            "RAAN": 34.5027,
            "Eccentricity": 0.0004036,
            "ArgumentOfPerigee": 205.7634,
            "MeanAnomaly": 17.494,
            "MeanMotion": 1.00270856,
            "RevolutionNumber": "1734"
        },
        {
            "Name": "BEIDOU-3 G3 (C61)",
            "Line1": "1 45807U 20040A   24309.65042993 -.00000334  00000+0  00000+0 0  9995",
            "Line2": "2 45807   1.0486  55.0623 0003193 302.4811  31.5890  1.00271601 16158",
            "SatelliteNumber": "45807",
            "Classification": "U",
            "LaunchYear": "20",
            "LaunchNumber": "040",
            "PieceOfLaunch": "A",
            "EpochYear": "24",
            "EpochDay": 309.65042993,
            "FirstDerivativeMeanMotion": -3.34e-06,
            "SecondDerivativeMeanMotion": "00000+0",
            "BSTAR": "00000+0",
            "SetNumber": "999",
            "Inclination": 1.0486,
            "RAAN": 55.0623,
            "Eccentricity": 0.0003193,
            "ArgumentOfPerigee": 302.4811,
            "MeanAnomaly": 31.589,
            "MeanMotion": 1.00271601,
            "RevolutionNumber": "1615"
        },
        {
            "Name": "BEIDOU-3 G4 (C62)",
            "Line1": "1 56564U 23066A   24309.54759716 -.00000092  00000+0  00000+0 0  9995",
            "Line2": "2 56564   1.7782 288.8427 0005117 247.7835 224.8725  1.00272309  5483",
            "SatelliteNumber": "56564",
            "Classification": "U",
            "LaunchYear": "23",
            "LaunchNumber": "066",
            "PieceOfLaunch": "A",
            "EpochYear": "24",
            "EpochDay": 309.54759716,
            "FirstDerivativeMeanMotion": -9.2e-07,
            "SecondDerivativeMeanMotion": "00000+0",
            "BSTAR": "00000+0",
            "SetNumber": "999",
            "Inclination": 1.7782,
            "RAAN": 288.8427,
            "Eccentricity": 0.0005117,
            "ArgumentOfPerigee": 247.7835,
            "MeanAnomaly": 224.8725,
            "MeanMotion": 1.00272309,
            "RevolutionNumber": "548"
        }
    ]
}